ORBCOMM FM115           
1 41186U 15081H   24286.87538643  .00003470  00000+0  72848-3 0  9996
2 41186  46.9966 134.9392 0000645 294.9538  65.1282 14.61420018471584
ORBCOMM FM108           
1 41187U 15081J   24286.81727175  .00005199  00000+0  11759-2 0  9994
2 41187  47.0032 194.4785 0002433 245.5786 114.4846 14.57222485470702
ORBCOMM FM117           
1 41188U 15081K   24286.85205574  .00004915  00000+0  11136-2 0  9997
2 41188  46.9992 193.1597 0003111 260.9036  99.1497 14.57224241470800
ORBCOMM FM116           
1 41189U 15081L   24286.70453840  .00003532  00000+0  81078-3 0  9990
2 41189  47.0008 283.6918 0002733 334.2775  25.7974 14.57222967469544
