<?xml version="1.0" encoding="UTF-8"?>
<ndm xmlns:xsi="http://www.w3.org/2001/XMLSchema-instance" xsi:noNamespaceSchemaLocation="https://sanaregistry.org/r/ndmxml_unqualified/ndmxml-2.0.0-master-2.0.xsd">
<omm id="CCSDS_OMM_VERS" version="2.0">
<header><CREATION_DATE/><ORIGINATOR/></header><body><segment><metadata><OBJECT_NAME>ORBCOMM FM115</OBJECT_NAME><OBJECT_ID>2015-081H</OBJECT_ID><CENTER_NAME>EARTH</CENTER_NAME><REF_FRAME>TEME</REF_FRAME><TIME_SYSTEM>UTC</TIME_SYSTEM><MEAN_ELEMENT_THEORY>SGP4</MEAN_ELEMENT_THEORY></metadata><data><meanElements><EPOCH>2024-10-12T21:00:33.387552</EPOCH><MEAN_MOTION>14.61420018</MEAN_MOTION><ECCENTRICITY>.0000645</ECCENTRICITY><INCLINATION>46.9966</INCLINATION><RA_OF_ASC_NODE>134.9392</RA_OF_ASC_NODE><ARG_OF_PERICENTER>294.9538</ARG_OF_PERICENTER><MEAN_ANOMALY>65.1282</MEAN_ANOMALY></meanElements><tleParameters><EPHEMERIS_TYPE>0</EPHEMERIS_TYPE><CLASSIFICATION_TYPE>U</CLASSIFICATION_TYPE><NORAD_CAT_ID>41186</NORAD_CAT_ID><ELEMENT_SET_NO>999</ELEMENT_SET_NO><REV_AT_EPOCH>47158</REV_AT_EPOCH><BSTAR>.72848E-3</BSTAR><MEAN_MOTION_DOT>.347E-4</MEAN_MOTION_DOT><MEAN_MOTION_DDOT>0</MEAN_MOTION_DDOT></tleParameters></data></segment></body></omm>
<omm id="CCSDS_OMM_VERS" version="2.0">
<header><CREATION_DATE/><ORIGINATOR/></header><body><segment><metadata><OBJECT_NAME>ORBCOMM FM108</OBJECT_NAME><OBJECT_ID>2015-081J</OBJECT_ID><CENTER_NAME>EARTH</CENTER_NAME><REF_FRAME>TEME</REF_FRAME><TIME_SYSTEM>UTC</TIME_SYSTEM><MEAN_ELEMENT_THEORY>SGP4</MEAN_ELEMENT_THEORY></metadata><data><meanElements><EPOCH>2024-10-12T19:36:52.279200</EPOCH><MEAN_MOTION>14.57222485</MEAN_MOTION><ECCENTRICITY>.0002433</ECCENTRICITY><INCLINATION>47.0032</INCLINATION><RA_OF_ASC_NODE>194.4785</RA_OF_ASC_NODE><ARG_OF_PERICENTER>245.5786</ARG_OF_PERICENTER><MEAN_ANOMALY>114.4846</MEAN_ANOMALY></meanElements><tleParameters><EPHEMERIS_TYPE>0</EPHEMERIS_TYPE><CLASSIFICATION_TYPE>U</CLASSIFICATION_TYPE><NORAD_CAT_ID>41187</NORAD_CAT_ID><ELEMENT_SET_NO>999</ELEMENT_SET_NO><REV_AT_EPOCH>47070</REV_AT_EPOCH><BSTAR>.11759E-2</BSTAR><MEAN_MOTION_DOT>.5199E-4</MEAN_MOTION_DOT><MEAN_MOTION_DDOT>0</MEAN_MOTION_DDOT></tleParameters></data></segment></body></omm>
<omm id="CCSDS_OMM_VERS" version="2.0">
<header><CREATION_DATE/><ORIGINATOR/></header><body><segment><metadata><OBJECT_NAME>ORBCOMM FM117</OBJECT_NAME><OBJECT_ID>2015-081K</OBJECT_ID><CENTER_NAME>EARTH</CENTER_NAME><REF_FRAME>TEME</REF_FRAME><TIME_SYSTEM>UTC</TIME_SYSTEM><MEAN_ELEMENT_THEORY>SGP4</MEAN_ELEMENT_THEORY></metadata><data><meanElements><EPOCH>2024-10-12T20:26:57.615936</EPOCH><MEAN_MOTION>14.57224241</MEAN_MOTION><ECCENTRICITY>.0003111</ECCENTRICITY><INCLINATION>46.9992</INCLINATION><RA_OF_ASC_NODE>193.1597</RA_OF_ASC_NODE><ARG_OF_PERICENTER>260.9036</ARG_OF_PERICENTER><MEAN_ANOMALY>99.1497</MEAN_ANOMALY></meanElements><tleParameters><EPHEMERIS_TYPE>0</EPHEMERIS_TYPE><CLASSIFICATION_TYPE>U</CLASSIFICATION_TYPE><NORAD_CAT_ID>41188</NORAD_CAT_ID><ELEMENT_SET_NO>999</ELEMENT_SET_NO><REV_AT_EPOCH>47080</REV_AT_EPOCH><BSTAR>.11136E-2</BSTAR><MEAN_MOTION_DOT>.4915E-4</MEAN_MOTION_DOT><MEAN_MOTION_DDOT>0</MEAN_MOTION_DDOT></tleParameters></data></segment></body></omm>
<omm id="CCSDS_OMM_VERS" version="2.0">
<header><CREATION_DATE/><ORIGINATOR/></header><body><segment><metadata><OBJECT_NAME>ORBCOMM FM116</OBJECT_NAME><OBJECT_ID>2015-081L</OBJECT_ID><CENTER_NAME>EARTH</CENTER_NAME><REF_FRAME>TEME</REF_FRAME><TIME_SYSTEM>UTC</TIME_SYSTEM><MEAN_ELEMENT_THEORY>SGP4</MEAN_ELEMENT_THEORY></metadata><data><meanElements><EPOCH>2024-10-12T16:54:32.117760</EPOCH><MEAN_MOTION>14.57222967</MEAN_MOTION><ECCENTRICITY>.0002733</ECCENTRICITY><INCLINATION>47.0008</INCLINATION><RA_OF_ASC_NODE>283.6918</RA_OF_ASC_NODE><ARG_OF_PERICENTER>334.2775</ARG_OF_PERICENTER><MEAN_ANOMALY>25.7974</MEAN_ANOMALY></meanElements><tleParameters><EPHEMERIS_TYPE>0</EPHEMERIS_TYPE><CLASSIFICATION_TYPE>U</CLASSIFICATION_TYPE><NORAD_CAT_ID>41189</NORAD_CAT_ID><ELEMENT_SET_NO>999</ELEMENT_SET_NO><REV_AT_EPOCH>46954</REV_AT_EPOCH><BSTAR>.81078E-3</BSTAR><MEAN_MOTION_DOT>.3532E-4</MEAN_MOTION_DOT><MEAN_MOTION_DDOT>0</MEAN_MOTION_DDOT></tleParameters></data></segment></body></omm>
</ndm>
